NORAD_CAT_ID,OBJECT_NAME,OBJECT_TYPE,EPOCH,MEAN_MOTION,ECCENTRICITY,INCLINATION,RA_OF_ASC_NODE,ARG_OF_PERICENTER,MEAN_ANOMALY,BSTAR,MEAN_MOTION_DOT,MEAN_MOTION_DDOT,TLE_LINE0,TLE_LINE1,TLE_LINE2,SEMIMAJOR_AXIS,PERIOD,APOGEE,PERIGEE,DECAYED
52111.0,STARLINK-3708,PAYLOAD,2023-11-27 02:47:46,15.08832212,0.0001546,53.2169,221.1741,104.4004,255.716,-0.00013693,-2.466e-05,0.0,0 STARLINK-3708,1 52111U 22029Z   23331.11650885 -.00002466  00000-0 -13693-3 0  9996,2 52111  53.2169 221.1741 0001546 104.4004 255.7160 15.08832212 94949,6917.904,95.438,540.839,538.7,0.0
52111.0,STARLINK-3708,PAYLOAD,2023-11-27 17:06:15,15.08825365,0.0001639,53.2166,218.4965,107.494,252.6231,-0.00037693,-6.279e-05,0.0,0 STARLINK-3708,1 52111U 22029Z   23331.71267772 -.00006279  00000-0 -37693-3 0  9993,2 52111  53.2166 218.4965 0001639 107.4940 252.6231 15.08825365 95035,6917.925,95.438,540.924,538.656,0.0
52111.0,STARLINK-3708,PAYLOAD,2023-11-27 21:52:24,15.08831613,0.0001708,53.2165,217.6042,105.4528,254.6653,-0.00021592,-3.722e-05,0.0,0 STARLINK-3708,1 52111U 22029Z   23331.91139580 -.00003722  00000-0 -21592-3 0  9991,2 52111  53.2165 217.6042 0001708 105.4528 254.6653 15.08831613 95064,6917.906,95.438,540.953,538.589,0.0
52111.0,STARLINK-3708,PAYLOAD,2023-11-28 02:38:34,15.08824325,0.0001656,53.2162,216.7123,95.7866,264.3315,-0.00010664,-1.984e-05,0.0,0 STARLINK-3708,1 52111U 22029Z   23332.11012090 -.00001984  00000-0 -10664-3 0  9996,2 52111  53.2162 216.7123 0001656  95.7866 264.3315 15.08824325 95097,6917.928,95.439,540.939,538.648,0.0
52111.0,STARLINK-3708,PAYLOAD,2023-11-28 20:07:48,15.08846829,0.0001429,53.2162,213.4507,49.5832,310.5284,0.00040422,6.152e-05,0.0,0 STARLINK-3708,1 52111U 22029Z   23332.83875744  .00006152  00000-0  40422-3 0  9993,2 52111  53.2162 213.4507 0001429  49.5832 310.5284 15.08846829 95200,6917.86,95.437,540.713,538.736,0.0
52111.0,STARLINK-3708,PAYLOAD,2023-11-28 21:43:11,15.08852411,0.0001637,53.2162,213.1436,95.3374,264.7805,0.00049951,7.673e-05,0.0,0 STARLINK-3708,1 52111U 22029Z   23332.90499050  .00007673  00000-0  49951-3 0  9998,2 52111  53.2162 213.1436 0001637  95.3374 264.7805 15.08852411 95213,6917.842,95.437,540.84,538.575,0.0
52111.0,STARLINK-3708,PAYLOAD,2023-11-28 23:18:34,15.08856632,0.0001568,53.2164,212.8479,90.5827,269.5345,0.00050378,7.742e-05,0.0,0 STARLINK-3708,1 52111U 22029Z   23332.97122791  .00007742  00000-0  50378-3 0  9992,2 52111  53.2164 212.8479 0001568  90.5827 269.5345 15.08856632 95223,6917.83,95.437,540.779,538.61,0.0
52111.0,STARLINK-3708,PAYLOAD,2023-11-29 19:58:35,15.08846079,0.0001409,53.2159,208.983,116.6833,243.4303,0.00018672,2.685e-05,0.0,0 STARLINK-3708,1 52111U 22029Z   23333.83235237  .00002685  00000-0  18672-3 0  9990,2 52111  53.2159 208.9830 0001409 116.6833 243.4303 15.08846079 95358,6917.862,95.437,540.702,538.752,0.0
52111.0,STARLINK-3708,PAYLOAD,2023-12-01 00:35:31,15.08839395,0.0001409,53.2149,203.6321,86.1674,273.9479,-8.3169e-05,-1.611e-05,0.0,0 STARLINK-3708,1 52111U 22029Z   23335.02466983 -.00001611  00000-0 -83169-4 0  9991,2 52111  53.2149 203.6321 0001409  86.1674 273.9479 15.08839395 95533,6917.882,95.438,540.722,538.773,0.0
52111.0,STARLINK-3708,PAYLOAD,2023-12-01 22:50:55,15.08857576,0.0001747,53.2149,199.4724,74.7097,285.4088,0.00065486,0.00010154,0.0,0 STARLINK-3708,1 52111U 22029Z   23335.95203000  .00010154  00000-0  65486-3 0  9993,2 52111  53.2149 199.4724 0001747  74.7097 285.4088 15.08857576 95679,6917.827,95.436,540.9,538.483,0.0
52111.0,STARLINK-3708,PAYLOAD,2023-12-02 19:30:56,15.08838354,0.0001413,53.2145,195.6046,100.0368,260.0784,7.3364e-05,8.8e-06,0.0,0 STARLINK-3708,1 52111U 22029Z   23336.81315531  .00000880  00000-0  73364-4 0  9992,2 52111  53.2145 195.6046 0001413 100.0368 260.0784 15.08838354 95804,6917.885,95.438,540.728,538.773,0.0
52111.0,STARLINK-3708,PAYLOAD,2023-12-02 21:06:19,15.08838231,0.0001374,53.2145,195.3072,105.3884,254.726,6.0133e-05,6.69e-06,0.0,0 STARLINK-3708,1 52111U 22029Z   23336.87939489  .00000669  00000-0  60133-4 0  9997,2 52111  53.2145 195.3072 0001374 105.3884 254.7260 15.08838231 95811,6917.886,95.438,540.701,538.8,0.0
52111.0,STARLINK-3708,PAYLOAD,2023-12-03 14:35:34,15.0883354,0.0001591,53.2164,192.0373,90.7202,269.3972,0.00014454,2.013e-05,0.0,0 STARLINK-3708,1 52111U 22029Z   23337.60804200  .00002013  00000-0  14454-3 0  9990,2 52111  53.2164 192.0373 0001591  90.7202 269.3972 15.08833540 95924,6917.9,95.438,540.866,538.664,0.0
52111.0,STARLINK-3708,PAYLOAD,2023-12-03 19:21:44,15.08837429,0.0001563,53.2156,191.145,81.514,278.6029,0.00012938,1.772e-05,0.0,0 STARLINK-3708,1 52111U 22029Z   23337.80676202  .00001772  00000-0  12938-3 0  9997,2 52111  53.2156 191.1450 0001563  81.5140 278.6029 15.08837429 95958,6917.888,95.438,540.835,538.672,0.0
52111.0,STARLINK-3708,PAYLOAD,2023-12-04 00:07:53,15.08840063,0.0001511,53.2155,190.2509,94.0011,266.1154,0.00026506,3.933e-05,0.0,0 STARLINK-3708,1 52111U 22029Z   23338.00548113  .00003933  00000-0  26506-3 0  9996,2 52111  53.2155 190.2509 0001511  94.0011 266.1154 15.08840063 95983,6917.88,95.438,540.79,538.7,0.0
52111.0,STARLINK-3708,PAYLOAD,2023-12-04 23:58:40,15.08851839,0.0001449,53.2151,185.7901,85.8777,274.2381,0.00033986,5.127e-05,0.0,0 STARLINK-3708,1 52111U 22029Z   23338.99907525  .00005127  00000-0  33986-3 0  9997,2 52111  53.2151 185.7901 0001449  85.8777 274.2381 15.08851839 96134,6917.844,95.437,540.712,538.707,0.0
52111.0,STARLINK-3708,PAYLOAD,2023-12-08 01:06:25,15.08822337,0.0001229,53.2138,172.1091,107.8906,252.222,-0.00014921,-2.661e-05,0.0,0 STARLINK-3708,1 52111U 22029Z   23342.04613024 -.00002661  00000-0 -14921-3 0  9996,2 52111  53.2138 172.1091 0001229 107.8906 252.2220 15.08822337 96593,6917.934,95.439,540.65,538.949,0.0
52111.0,STARLINK-3708,PAYLOAD,2023-12-08 12:14:06,15.08811112,0.0001352,53.2147,170.0299,81.634,278.4806,0.00033884,5.105e-05,0.0,0 STARLINK-3708,1 52111U 22029Z   23342.50980087  .00005105  00000-0  33884-3 0  9996,2 52111  53.2147 170.0299 0001352  81.6340 278.4806 15.08811112 96665,6917.969,95.439,540.769,538.898,0.0
52111.0,STARLINK-3708,PAYLOAD,2023-12-08 13:49:30,15.08812952,0.0001219,53.2149,169.7314,80.6882,279.4248,0.00027751,4.128e-05,0.0,0 STARLINK-3708,1 52111U 22029Z   23342.57604627  .00004128  00000-0  27751-3 0  9996,2 52111  53.2149 169.7314 0001219  80.6882 279.4248 15.08812952 96677,6917.963,95.439,540.671,538.985,0.0
52111.0,STARLINK-3708,PAYLOAD,2023-12-08 21:46:26,15.08820087,0.0001323,53.2153,168.2455,78.5653,281.5488,0.00023117,3.391e-05,0.0,0 STARLINK-3708,1 52111U 22029Z   23342.90725304  .00003391  00000-0  23117-3 0  9992,2 52111  53.2153 168.2455 0001323  78.5653 281.5488 15.08820087 96724,6917.941,95.439,540.721,538.891,0.0
52111.0,STARLINK-3708,PAYLOAD,2023-12-09 13:40:18,15.08826432,0.0001326,53.2153,165.2718,76.1024,284.0116,0.00024689,3.642e-05,0.0,0 STARLINK-3708,1 52111U 22029Z   23343.56965781  .00003642  00000-0  24689-3 0  9994,2 52111  53.2153 165.2718 0001326  76.1024 284.0116 15.08826432 96829,6917.922,95.438,540.704,538.87,0.0
52111.0,STARLINK-3708,PAYLOAD,2023-12-09 20:01:51,15.08834653,0.0001357,53.2153,164.0823,66.2538,293.8596,0.00018525,2.661e-05,0.0,0 STARLINK-3708,1 52111U 22029Z   23343.83461867  .00002661  00000-0  18525-3 0  9992,2 52111  53.2153 164.0823 0001357  66.2538 293.8596 15.08834653 96865,6917.897,95.438,540.7,538.823,0.0
52111.0,STARLINK-3708,PAYLOAD,2023-12-09 21:37:14,15.08829418,0.0001341,53.2154,163.785,76.1586,283.9555,0.00025854,3.828e-05,0.0,0 STARLINK-3708,1 52111U 22029Z   23343.90085903  .00003828  00000-0  25854-3 0  9992,2 52111  53.2154 163.7850 0001341  76.1586 283.9555 15.08829418 96877,6917.913,95.438,540.705,538.85,0.0
52111.0,STARLINK-3708,PAYLOAD,2023-12-10 11:55:42,15.0883061,0.0001275,53.2154,161.1084,69.5728,290.5401,0.00034272,5.169e-05,0.0,0 STARLINK-3708,1 52111U 22029Z   23344.49702229  .00005169  00000-0  34272-3 0  9998,2 52111  53.2154 161.1084 0001275  69.5728 290.5401 15.08830610 96968,6917.909,95.438,540.656,538.892,0.0
52111.0,STARLINK-3708,PAYLOAD,2023-12-10 18:17:14,15.08844892,0.0001383,53.2154,159.9192,66.6973,293.4164,0.00015851,2.236e-05,0.0,0 STARLINK-3708,1 52111U 22029Z   23344.76197517  .00002236  00000-0  15851-3 0  9990,2 52111  53.2154 159.9192 0001383  66.6973 293.4164 15.08844892 97004,6917.865,95.437,540.687,538.774,0.0
52111.0,STARLINK-3708,PAYLOAD,2023-12-11 14:57:14,15.08852026,0.0001395,53.2155,156.0533,67.104,293.01,0.00016917,2.406e-05,0.0,0 STARLINK-3708,1 52111U 22029Z   23345.62308738  .00002406  00000-0  16917-3 0  9998,2 52111  53.2155 156.0533 0001395  67.1040 293.0100 15.08852026 97134,6917.844,95.437,540.674,538.744,0.0
52111.0,STARLINK-3708,PAYLOAD,2023-12-11 18:08:00,15.08853703,0.0001401,53.2154,155.4586,66.9288,293.1852,0.00018011,2.581e-05,0.0,0 STARLINK-3708,1 52111U 22029Z   23345.75556579  .00002581  00000-0  18011-3 0  9991,2 52111  53.2154 155.4586 0001401  66.9288 293.1852 15.08853703 97153,6917.839,95.437,540.673,538.734,0.0
52111.0,STARLINK-3708,PAYLOAD,2023-12-12 17:58:47,15.08849724,0.0001378,53.2161,150.9975,71.9789,288.1353,6.2457e-05,7.06e-06,0.0,0 STARLINK-3708,1 52111U 22029Z   23346.74916376  .00000706  00000-0  62457-4 0  9997,2 52111  53.2161 150.9975 0001378  71.9789 288.1353 15.08849724 97303,6917.851,95.437,540.669,538.762,0.0
52111.0,STARLINK-3708,PAYLOAD,2023-12-13 14:38:49,15.08837198,0.0001461,53.2166,147.1296,80.5089,279.6068,-2.6219e-05,-7.05e-06,0.0,0 STARLINK-3708,1 52111U 22029Z   23347.61029257 -.00000705  00000-0 -26219-4 0  9994,2 52111  53.2166 147.1296 0001461  80.5089 279.6068 15.08837198 97438,6917.889,95.438,540.765,538.743,0.0
52111.0,STARLINK-3708,PAYLOAD,2023-12-13 17:49:35,15.08833859,0.0001464,53.2166,146.5355,74.222,285.8933,-8.273e-05,-1.604e-05,0.0,0 STARLINK-3708,1 52111U 22029Z   23347.74277585 -.00001604  00000-0 -82730-4 0  9996,2 52111  53.2166 146.5355 0001464  74.2220 285.8933 15.08833859 97459,6917.899,95.438,540.777,538.751,0.0
